[{"OBJECT_NAME":"JILIN-1 GAOFEN 2F","OBJECT_ID":"2021-097A","EPOCH":"2026-03-09T22:15:16.366464","MEAN_MOTION":15.06938169,"ECCENTRICITY":0.00186372,"INCLINATION":97.6538,"RA_OF_ASC_NODE":195.5232,"ARG_OF_PERICENTER":201.1609,"MEAN_ANOMALY":158.885,"EPHEMERIS_TYPE":0,"CLASSIFICATION_TYPE":"U","NORAD_CAT_ID":49338,"ELEMENT_SET_NO":999,"REV_AT_EPOCH":24136,"BSTAR":0.0003789548,"MEAN_MOTION_DOT":5.624e-5,"MEAN_MOTION_DDOT":0},{"OBJECT_NAME":"STARLINK-4532","OBJECT_ID":"2022-097AN","EPOCH":"2026-03-09T12:36:53.688960","MEAN_MOTION":15.08845498,"ECCENTRICITY":0.0001025,"INCLINATION":53.2168,"RA_OF_ASC_NODE":114.8593,"ARG_OF_PERICENTER":73.1914,"MEAN_ANOMALY":286.9191,"EPHEMERIS_TYPE":0,"CLASSIFICATION_TYPE":"U","NORAD_CAT_ID":53424,"ELEMENT_SET_NO":999,"REV_AT_EPOCH":19862,"BSTAR":-0.00020065,"MEAN_MOTION_DOT":-3.48e-5,"MEAN_MOTION_DDOT":0}]
